{
    "links": {
        "self": "http://www.neowsapp.com/rest/v1/neo/3561771?api_key=iIulBulltgU6a56xZRHN4H3l9WmuAYTsLGpBGhQ2"
    },
    "id": "3561771",
    "neo_reference_id": "3561771",
    "name": "(2011 GV9)",
    "designation": "2011 GV9",
    "nasa_jpl_url": "http://ssd.jpl.nasa.gov/sbdb.cgi?sstr=3561771",
    "absolute_magnitude_h": 26.4,
    "estimated_diameter": {
        "kilometers": {
            "estimated_diameter_min": 0.0139493823,
            "estimated_diameter_max": 0.0311917671
        },
        "meters": {
            "estimated_diameter_min": 13.9493822934,
            "estimated_diameter_max": 31.1917670523
        },
        "miles": {
            "estimated_diameter_min": 0.0086677416,
            "estimated_diameter_max": 0.0193816595
        },
        "feet": {
            "estimated_diameter_min": 45.7656914036,
            "estimated_diameter_max": 102.3351970157
        }
    },
    "is_potentially_hazardous_asteroid": false,
    "close_approach_data": [
        {
            "close_approach_date": "2011-04-21",
            "close_approach_date_full": "2011-Apr-21 18:45",
            "epoch_date_close_approach": 1303411500000,
            "relative_velocity": {
                "kilometers_per_second": "3.7488863444",
                "kilometers_per_hour": "13495.9908398757",
                "miles_per_hour": "8385.8838638105"
            },
            "miss_distance": {
                "astronomical": "0.0610534623",
                "lunar": "23.7497968347",
                "kilometers": "9133467.916205301",
                "miles": "5675273.7971871138"
            },
            "orbiting_body": "Earth"
        }
    ],
    "orbital_data": {
        "orbit_id": "6",
        "orbit_determination_date": "2019-07-19 05:25:25",
        "first_observation_date": "2011-03-31",
        "last_observation_date": "2011-04-04",
        "data_arc_in_days": 4,
        "observations_used": 20,
        "orbit_uncertainty": "8",
        "minimum_orbit_intersection": ".0589911",
        "jupiter_tisserand_invariant": "4.415",
        "epoch_osculation": "2455653.5",
        "eccentricity": ".3082133385976835",
        "semi_major_axis": "1.53863821391708",
        "inclination": "2.465033806326635",
        "ascending_node_longitude": "207.7597417033855",
        "orbital_period": "697.1130270844618",
        "perihelion_distance": "1.06440939311172",
        "perihelion_argument": "3.712137047262512",
        "aphelion_distance": "2.01286703472244",
        "perihelion_time": "2455672.853955490255",
        "mean_anomaly": "350.0053166333275",
        "mean_motion": ".5164155395368657",
        "equinox": "J2000",
        "orbit_class": {
            "orbit_class_type": "AMO",
            "orbit_class_description": "Near-Earth asteroid orbits similar to that of 1221 Amor",
            "orbit_class_range": "1.017 AU < q (perihelion) < 1.3 AU"
        }
    },
    "is_sentry_object": false
}